STARLINK-37992          
1 69681U 26145E   26200.55693904  .00145319  00000+0  95716-3 0  9992
2 69681  97.2839  47.6126 0001097 104.4482 255.6905 15.75226458  3860
STARLINK-37997          
1 69682U 26145F   26198.00002315 -.00003501  00000+0 -22625-4 0  9997
2 69682  97.2838  44.9322 0001192  99.5818 174.9569 15.75175815  4715
STARLINK-37990          
1 69683U 26145G   26200.55658641  .00124535  00000+0  82332-3 0  9990
2 69683  97.2823  47.6120 0000672 103.1718 256.9622 15.75200713  3861
STARLINK-37951          
1 69684U 26145H   26201.12727951  .00170335  00000+0  11203-2 0  9993
2 69684  97.2853  48.2144 0002139  77.9844 282.1661 15.75187297  3951
STARLINK-37957          
1 69685U 26145J   26201.06268669  .00113829  00000+0  75381-3 0  9996
2 69685  97.2856  48.1498 0000971 118.0240 242.1124 15.75193031  3947
STARLINK-37968          
1 69686U 26145K   26201.25004630 -.02489877  00000+0 -27764-1 0  9997
2 69686  97.2857  48.3533 0001601 111.1882 237.8476 15.66180679  5237
STARLINK-37977          
1 69687U 26145L   26200.54776317  .00097126  00000+0  64425-3 0  9992
2 69687  97.2836  47.6256 0001244  87.1386 273.0021 15.75204737  3860
STARLINK-37908          
1 69688U 26145M   26201.24444931  .00151094  00000+0  99505-3 0  9997
2 69688  97.2853  48.3621 0001457  76.3900 283.7528 15.75213041  3972
STARLINK-37979          
1 69689U 26145N   26200.03716597  .00187711  00000+0  12424-2 0  9993
2 69689  97.2836  47.0963 0004064 329.7447  30.3583 15.74987322  3782
STARLINK-37940          
1 69690U 26145P   26201.11598400  .00130440  00000+0  86208-3 0  9995
2 69690  97.2839  48.2309 0001285  73.7239 286.4167 15.75190687  3953
STARLINK-37961          
1 69691U 26145Q   26200.54106436  .00063371  00000+0  42418-3 0  9999
2 69691  97.2842  47.6340 0001229 131.0284 229.1087 15.75103371  3861
STARLINK-37787          
1 69692U 26145R   26201.04716234  .00184740  00000+0  12084-2 0  9998
2 69692  97.2844  48.1728 0000910  49.9942 310.1403 15.75274543  3946
STARLINK-37962          
1 69693U 26145S   26201.10892371  .00139260  00000+0  91977-3 0  9999
2 69693  97.2839  48.2401 0000930 110.7919 249.3446 15.75180569  3958
STARLINK-37953          
1 69694U 26145T   26200.09531428  .00118908  00000+0  78739-3 0  9997
2 69694  97.2820  47.1697 0002892  77.2614 282.8974 15.75176117  3796
STARLINK-37926          
1 69695U 26145U   26201.25004630 -.02575595  00000+0 -24819-1 0  9998
2 69695  97.2849  48.3821 0001382  72.4306 346.3508 15.69859772  5236
STARLINK-37959          
1 69696U 26145V   26201.10998542  .00149030  00000+0  98263-3 0  9990
2 69696  97.2840  48.2376 0001593  95.0511 265.0936 15.75191256  3957
STARLINK-37976          
1 69697U 26145W   26201.10716332  .00175615  00000+0  11546-2 0  9992
2 69697  97.2841  48.2429 0001859  87.3920 272.7558 15.75182342  3952
STARLINK-37912          
1 69698U 26145X   26201.10610194  .00181645  00000+0  11934-2 0  9993
2 69698  97.2841  48.2444 0001193 107.2891 252.8505 15.75181899  3957
STARLINK-37974          
1 69699U 26145Y   26201.10540454  .00047977  00000+0  32061-3 0  9999
2 69699  97.2826  48.2458 0003196  71.4063 288.7550 15.75193191  3950
STARLINK-37955          
1 69700U 26145Z   26201.23019628 -.00720380  00000+0 -55413-2 0  9993
2 69700  97.2819  48.3821 0002723 153.8020 206.3382 15.73929356  3972
STRIX-8                 
1 69701U 26146A   26201.26447230  .00002456  00000+0  18603-3 0  9998
2 69701  41.9906 345.0109 0006522  59.5833 300.5638 15.04459437  3543
ELECTRON R/B            
1 69702U 26146B   26200.72784198  .00436472  70112-4  97636-3 0  9994
2 69702  42.0730 334.6498 0155890  52.2654 309.2214 15.79046253  3625
ELECTRON KICK STAGE R/B 
1 69703U 26146C   26201.12370521  .00002079  00000+0  15746-3 0  9999
2 69703  41.9889 345.6820 0008336  59.0317 301.1328 15.04964788  3529
STARLINK-38055          
1 69704U 26147A   26201.10673138 -.00098053  00000+0 -51888-3 0  9995
2 69704  97.2831 237.7772 0001254 339.3276  20.7941 15.80733585  4639
STARLINK-37898          
1 69705U 26147B   26201.25004630 -.02508469  00000+0 -19617-1 0  9998
2 69705  97.2835 237.9259 0001737  68.4556  20.9043 15.75257667  4555
STARLINK-37970          
1 69706U 26147C   26201.25004630 -.02659683  00000+0 -21184-1 0  9996
2 69706  97.2837 237.9272 0001581  73.9504  17.0161 15.74439841  4557
STARLINK-37975          
1 69707U 26147D   26201.10439999  .00195977  00000+0  10050-2 0  9999
2 69707  97.2835 237.7809 0001201  11.8979 348.2317 15.80730739  4634
STARLINK-37972          
1 69708U 26147E   26201.10363587 -.00555471  00000+0 -30532-2 0  9997
2 69708  97.2823 237.7813 0015631 149.0689 211.1504 15.80803570  4631
STARLINK-37963          
1 69709U 26147F   26201.25004630 -.02661003  00000+0 -19687-1 0  9993
2 69709  97.2835 237.9339 0001748  78.2109  31.5835 15.76121138  4554
STARLINK-37969          
1 69710U 26147G   26200.53245219  .00202429  00000+0  10325-2 0  9995
2 69710  97.2837 237.1813 0002003   0.6740 359.4531 15.80829966  4545
