OBJECT_NAME,OBJECT_ID,EPOCH,MEAN_MOTION,ECCENTRICITY,INCLINATION,RA_OF_ASC_NODE,ARG_OF_PERICENTER,MEAN_ANOMALY,EPHEMERIS_TYPE,CLASSIFICATION_TYPE,NORAD_CAT_ID,ELEMENT_SET_NO,REV_AT_EPOCH,BSTAR,MEAN_MOTION_DOT,MEAN_MOTION_DDOT
STARLINK-37992,2026-145E,2026-07-19T13:21:59.533056,15.75226458,.0001097,97.2839,47.6126,104.4482,255.6905,0,U,69681,999,386,.95716E-3,.145319E-2,0
STARLINK-37997,2026-145F,2026-07-17T00:00:02.000160,15.75175815,.00011924,97.2838,44.9322,99.5818,174.9569,0,U,69682,999,471,-.22624739E-4,-.3501E-4,0
STARLINK-37990,2026-145G,2026-07-19T13:21:29.065824,15.75200713,.0000672,97.2823,47.6120,103.1718,256.9622,0,U,69683,999,386,.82332E-3,.124535E-2,0
STARLINK-37951,2026-145H,2026-07-20T03:03:16.949664,15.75187297,.00021391,97.2853,48.2144,77.9844,282.1661,0,U,69684,999,395,.11203244E-2,.170335E-2,0
STARLINK-37957,2026-145J,2026-07-20T01:30:16.130016,15.75193031,.00009711,97.2856,48.1498,118.0240,242.1124,0,U,69685,999,394,.75380792E-3,.113829E-2,0
STARLINK-37968,2026-145K,2026-07-20T06:00:04.000320,15.66180679,.00016011,97.2857,48.3533,111.1882,237.8476,0,U,69686,999,523,-.27764288E-1,-.2489877E-1,0
STARLINK-37977,2026-145L,2026-07-19T13:08:46.737888,15.75204737,.00012442,97.2836,47.6256,87.1386,273.0021,0,U,69687,999,386,.64425397E-3,.97126E-3,0
STARLINK-37908,2026-145M,2026-07-20T05:52:00.420384,15.75213041,.00014572,97.2853,48.3621,76.3900,283.7528,0,U,69688,999,397,.99505477E-3,.151094E-2,0
STARLINK-37979,2026-145N,2026-07-19T00:53:31.139808,15.74987322,.0004064,97.2836,47.0963,329.7447,30.3583,0,U,69689,999,378,.12423645E-2,.187711E-2,0
STARLINK-37940,2026-145P,2026-07-20T02:47:01.017600,15.75190687,.00012857,97.2839,48.2309,73.7239,286.4167,0,U,69690,999,395,.86207668E-3,.13044E-2,0
STARLINK-37961,2026-145Q,2026-07-19T12:59:07.960704,15.75103371,.00012296,97.2842,47.6340,131.0284,229.1087,0,U,69691,999,386,.42417508E-3,.63371E-3,0
STARLINK-37787,2026-145R,2026-07-20T01:07:54.826176,15.75274543,.00009101,97.2844,48.1728,49.9942,310.1403,0,U,69692,999,394,.12084237E-2,.18474E-2,0
STARLINK-37962,2026-145S,2026-07-20T02:36:51.008544,15.75180569,.000093,97.2839,48.2401,110.7919,249.3446,0,U,69693,999,395,.91976718E-3,.13926E-2,0
STARLINK-37953,2026-145T,2026-07-19T02:17:15.153792,15.75176117,.00028922,97.2820,47.1697,77.2614,282.8974,0,U,69694,999,379,.78738845E-3,.118908E-2,0
STARLINK-37926,2026-145U,2026-07-20T06:00:04.000320,15.69859772,.00013826,97.2849,48.3821,72.4306,346.3508,0,U,69695,999,523,-.24818953E-1,-.2575595E-1,0
STARLINK-37959,2026-145V,2026-07-20T02:38:22.740288,15.75191256,.00015937,97.2840,48.2376,95.0511,265.0936,0,U,69696,999,395,.98262856E-3,.14903E-2,0
STARLINK-37976,2026-145W,2026-07-20T02:34:18.910848,15.75182342,.00018598,97.2841,48.2429,87.3920,272.7558,0,U,69697,999,395,.11545764E-2,.175615E-2,0
STARLINK-37912,2026-145X,2026-07-20T02:32:47.207616,15.75181899,.00011939,97.2841,48.2444,107.2891,252.8505,0,U,69698,999,395,.11933937E-2,.181645E-2,0
STARLINK-37974,2026-145Y,2026-07-20T02:31:46.952256,15.75193191,.00031968,97.2826,48.2458,71.4063,288.7550,0,U,69699,999,395,.32060592E-3,.47977E-3,0
STARLINK-37955,2026-145Z,2026-07-20T05:31:28.958592,15.73929356,.00027231,97.2819,48.3821,153.8020,206.3382,0,U,69700,999,397,-.55412937E-2,-.72038E-2,0
STRIX-8,2026-146A,2026-07-20T06:20:50.406720,15.04459437,.00065224,41.9906,345.0109,59.5833,300.5638,0,U,69701,999,354,.18603208E-3,.2456E-4,0
ELECTRON R/B,2026-146B,2026-07-19T17:28:05.547072,15.79046253,.01558905,42.0730,334.6498,52.2654,309.2214,0,U,69702,999,362,.97636476E-3,.436472E-2,.70112115E-4
ELECTRON KICK STAGE R/B,2026-146C,2026-07-20T02:58:08.130144,15.04964788,.00083363,41.9889,345.6820,59.0317,301.1328,0,U,69703,999,352,.15745666E-3,.2079E-4,0
STARLINK-38055,2026-147A,2026-07-20T02:33:41.591232,15.80733585,.00012548,97.2831,237.7772,339.3276,20.7941,0,U,69704,999,463,-.51887558E-3,-.98053E-3,0
STARLINK-37898,2026-147B,2026-07-20T06:00:04.000320,15.75257667,.00017371,97.2835,237.9259,68.4556,20.9043,0,U,69705,999,455,-.19617371E-1,-.2508469E-1,0
STARLINK-37970,2026-147C,2026-07-20T06:00:04.000320,15.74439841,.00015812,97.2837,237.9272,73.9504,17.0161,0,U,69706,999,455,-.21184467E-1,-.2659683E-1,0
STARLINK-37975,2026-147D,2026-07-20T02:30:20.159136,15.80730739,.00012012,97.2835,237.7809,11.8979,348.2317,0,U,69707,999,463,.10049595E-2,.195977E-2,0
STARLINK-37972,2026-147E,2026-07-20T02:29:14.139168,15.80803570,.00156317,97.2823,237.7813,149.0689,211.1504,0,U,69708,999,463,-.30531806E-2,-.555471E-2,0
STARLINK-37963,2026-147F,2026-07-20T06:00:04.000320,15.76121138,.00017488,97.2835,237.9339,78.2109,31.5835,0,U,69709,999,455,-.19686739E-1,-.2661003E-1,0
STARLINK-37969,2026-147G,2026-07-19T12:46:43.869216,15.80829966,.0002003,97.2837,237.1813,0.6740,359.4531,0,U,69710,999,454,.10325E-2,.202429E-2,0
